ONEWEB-0607             
1 54671U 22166AF  25303.00923113  .00000079  00000+0  15856-3 0  9995
2 54671  87.9170 289.8894 0001699  88.4744 271.6585 13.21825192141133
ONEWEB-0608             
1 54672U 22166AG  25303.24289638  .00000125  00000+0  27196-3 0  9991
2 54672  87.9176 289.8269 0001393  79.5376 280.5915 13.21827681141174
ONEWEB-0610             
1 54673U 22166AH  25303.22314126  .00000097  00000+0  20245-3 0  9997
2 54673  87.9169 289.8675 0001286  79.8483 280.2796 13.21824697141078
ONEWEB-0611             
1 54674U 22166AJ  25303.67072580  .00000109  00000+0  23321-3 0  9994
2 54674  87.9169 289.7736 0002089  90.7925 269.3448 13.21824209141128
ONEWEB-0612             
1 54675U 22166AK  25303.00264154  .00000028  00000+0  37309-4 0  9994
2 54675  87.9173 289.8856 0001729  85.9238 274.2093 13.21825418141024
ONEWEB-0615             
1 54676U 22166AL  25303.66414730  .00000035  00000+0  53354-4 0  9990
2 54676  87.9171 289.7802 0001891  88.1355 271.9995 13.21826532141122
ONEWEB-0655             
1 54677U 22166AM  25302.95821426  .00000029  00000+0  38478-4 0  9999
2 54677  87.9170 289.9264 0001689  96.1493 263.9834 13.21827337141029
ONEWEB-0659             
1 54678U 22166AN  25303.20176550 -.00000656  00000+0 -16206-2 0  9991
2 54678  87.9169 289.8778 0001635  77.6578 282.4739 13.21831499141143
